NORAD_CAT_ID,OBJECT_NAME,OBJECT_TYPE,EPOCH,MEAN_MOTION,ECCENTRICITY,INCLINATION,RA_OF_ASC_NODE,ARG_OF_PERICENTER,MEAN_ANOMALY,BSTAR,MEAN_MOTION_DOT,MEAN_MOTION_DDOT,TLE_LINE0,TLE_LINE1,TLE_LINE2,SEMIMAJOR_AXIS,PERIOD,APOGEE,PERIGEE,DECAYED
49438.0,STARLINK-3044,PAYLOAD,2023-10-12 03:35:26,15.08856355,0.0001274,53.2149,197.4648,92.4906,267.6232,0.0010265,0.00016094,0.0,0 STARLINK-3044,1 49438U 21104AG  23285.14961153  .00016094  00000-0  10265-2 0  9992,2 49438  53.2149 197.4648 0001274  92.4906 267.6232 15.08856355106132,6917.83,95.437,540.577,538.814,0.0
49438.0,STARLINK-3044,PAYLOAD,2023-10-12 17:53:54,15.08852371,0.0001311,53.2165,194.7877,96.5235,263.5906,0.00075727,0.00011789,0.0,0 STARLINK-3044,1 49438U 21104AG  23285.74577326  .00011789  00000-0  75727-3 0  9994,2 49438  53.2165 194.7877 0001311  96.5235 263.5906 15.08852371107291,6917.843,95.437,540.615,538.801,0.0
49438.0,STARLINK-3044,PAYLOAD,2023-10-12 22:40:04,15.08857917,0.0001302,53.2166,193.8953,100.366,259.7479,0.00081243,0.00012672,0.0,0 STARLINK-3044,1 49438U 21104AG  23285.94449108  .00012672  00000-0  81243-3 0  9994,2 49438  53.2166 193.8953 0001302 100.3660 259.7479 15.08857917106251,6917.826,95.436,540.591,538.79,0.0
49438.0,STARLINK-3044,PAYLOAD,2023-10-13 11:23:08,15.0885102,0.0001459,53.2158,191.5169,89.9165,270.1995,0.00091575,0.00014321,0.0,0 STARLINK-3044,1 49438U 21104AG  23286.47440932  .00014321  00000-0  91575-3 0  9991,2 49438  53.2158 191.5169 0001459  89.9165 270.1995 15.08851020107408,6917.847,95.437,540.721,538.702,0.0
49438.0,STARLINK-3044,PAYLOAD,2023-10-13 20:55:27,15.08855094,0.0001568,53.2162,189.7326,94.2372,265.8799,0.0004605,7.051e-05,0.0,0 STARLINK-3044,1 49438U 21104AG  23286.87184673  .00007051  00000-0  46050-3 0  9992,2 49438  53.2162 189.7326 0001568  94.2372 265.8799 15.08855094106392,6917.834,95.437,540.784,538.615,0.0
49438.0,STARLINK-3044,PAYLOAD,2023-10-14 03:16:59,15.08871209,0.0001316,53.216,188.5416,97.3124,262.8018,0.00092901,0.00014541,0.0,0 STARLINK-3044,1 49438U 21104AG  23287.13679976  .00014541  00000-0  92901-3 0  9995,2 49438  53.2160 188.5416 0001316  97.3124 262.8018 15.08871209106439,6917.785,95.436,540.56,538.74,0.0
49438.0,STARLINK-3044,PAYLOAD,2023-10-14 20:46:14,15.08842038,0.0001951,53.216,185.273,107.8835,252.237,-1.5585e-05,-5.36e-06,0.0,0 STARLINK-3044,1 49438U 21104AG  23287.86544684 -.00000536  00000-0 -15585-4 0  9997,2 49438  53.2160 185.2730 0001951 107.8835 252.2370 15.08842038107616,6917.874,95.437,541.089,538.389,0.0
49438.0,STARLINK-3044,PAYLOAD,2023-10-14 22:21:37,15.08844236,0.0001445,53.2155,184.9752,86.101,274.0148,5.3038e-05,5.56e-06,0.0,0 STARLINK-3044,1 49438U 21104AG  23287.93168735  .00000556  00000-0  53038-4 0  9999,2 49438  53.2155 184.9752 0001445  86.1010 274.0148 15.08844236106551,6917.867,95.437,540.732,538.733,0.0
49438.0,STARLINK-3044,PAYLOAD,2023-10-15 03:07:46,15.08853477,0.0001471,53.2157,184.0822,88.5334,271.5826,0.00035272,5.332e-05,0.0,0 STARLINK-3044,1 49438U 21104AG  23288.13040415  .00005332  00000-0  35272-3 0  9992,2 49438  53.2157 184.0822 0001471  88.5334 271.5826 15.08853477107650,6917.839,95.437,540.722,538.687,0.0
49438.0,STARLINK-3044,PAYLOAD,2023-10-15 20:37:01,15.08840966,0.0001452,53.2156,180.8117,86.0665,274.0493,0.00012705,1.735e-05,0.0,0 STARLINK-3044,1 49438U 21104AG  23288.85904917  .00001735  00000-0  12705-3 0  9996,2 49438  53.2156 180.8117 0001452  86.0665 274.0493 15.08840966107768,6917.877,95.437,540.747,538.738,0.0
49438.0,STARLINK-3044,PAYLOAD,2023-10-15 22:12:24,15.08842836,0.0001397,53.2161,180.5142,94.126,265.9891,0.00012457,1.695e-05,0.0,0 STARLINK-3044,1 49438U 21104AG  23288.92528738  .00001695  00000-0  12457-3 0  9996,2 49438  53.2161 180.5142 0001397  94.1260 265.9891 15.08842836106700,6917.872,95.437,540.703,538.77,0.0
49438.0,STARLINK-3044,PAYLOAD,2023-10-16 02:58:34,15.08846995,0.0001357,53.216,179.6215,92.5394,267.5753,0.00034861,5.266e-05,0.0,0 STARLINK-3044,1 49438U 21104AG  23289.12400502  .00005266  00000-0  34861-3 0  9998,2 49438  53.2160 179.6215 0001357  92.5394 267.5753 15.08846995106733,6917.859,95.437,540.663,538.785,0.0
49438.0,STARLINK-3044,PAYLOAD,2023-10-17 09:10:54,15.08835429,0.000143,53.2157,173.9697,87.0092,273.1064,8.6051e-05,1.082e-05,0.0,0 STARLINK-3044,1 49438U 21104AG  23290.38257352  .00001082  00000-0  86051-4 0  9992,2 49438  53.2157 173.9697 0001430  87.0092 273.1064 15.08835429107993,6917.894,95.438,540.749,538.77,0.0
49438.0,STARLINK-3044,PAYLOAD,2023-10-17 23:29:22,15.08840047,9.81e-05,53.2159,171.2952,72.1493,287.9606,9.818e-05,1.275e-05,0.0,0 STARLINK-3044,1 49438U 21104AG  23290.97873215  .00001275  00000-0  98180-4 0  9999,2 49438  53.2159 171.2952 0000981  72.1493 287.9606 15.08840047107010,6917.88,95.438,540.424,539.067,0.0
49438.0,STARLINK-3044,PAYLOAD,2023-10-18 09:01:41,15.08841474,0.0001415,53.2153,169.5118,89.1774,270.938,7.3704e-05,8.85e-06,0.0,0 STARLINK-3044,1 49438U 21104AG  23291.37617152  .00000885  00000-0  73704-4 0  9991,2 49438  53.2153 169.5118 0001415  89.1774 270.9380 15.08841474107073,6917.876,95.437,540.72,538.762,0.0
49438.0,STARLINK-3044,PAYLOAD,2023-10-19 21:35:33,15.08843064,1.88e-05,53.2167,162.6691,42.1988,317.9019,0.00020017,2.9e-05,0.0,0 STARLINK-3044,1 49438U 21104AG  23292.89969203  .00002900  00000-0  20017-3 0  9994,2 49438  53.2167 162.6691 0000188  42.1988 317.9019 15.08843064108372,6917.871,95.437,539.866,539.606,0.0
49438.0,STARLINK-3044,PAYLOAD,2023-10-19 23:10:56,15.08847409,0.0001373,53.2179,162.3733,72.8094,287.3049,0.0003511,5.305e-05,0.0,0 STARLINK-3044,1 49438U 21104AG  23292.96593214  .00005305  00000-0  35110-3 0  9999,2 49438  53.2179 162.3733 0001373  72.8094 287.3049 15.08847409108385,6917.858,95.437,540.673,538.773,0.0
49438.0,STARLINK-3044,PAYLOAD,2023-10-20 15:04:48,15.08837094,0.0001429,53.2159,159.3998,109.1914,250.9232,6.1261e-05,6.87e-06,0.0,0 STARLINK-3044,1 49438U 21104AG  23293.62834227  .00000687  00000-0  61261-4 0  9990,2 49438  53.2159 159.3998 0001429 109.1914 250.9232 15.08837094108489,6917.889,95.438,540.743,538.766,0.0
49438.0,STARLINK-3044,PAYLOAD,2023-10-20 21:26:20,15.08832331,0.0001556,53.2162,158.2124,82.9283,277.1886,-4.1544e-05,-9.49e-06,0.0,0 STARLINK-3044,1 49438U 21104AG  23293.89329050 -.00000949  00000-0 -41544-4 0  9997,2 49438  53.2162 158.2124 0001556  82.9283 277.1886 15.08832331107451,6917.904,95.438,540.845,538.692,0.0
49438.0,STARLINK-3044,PAYLOAD,2023-10-21 00:37:04,15.08911741,0.0001454,53.2183,157.6144,69.7731,290.3418,0.00077231,0.00012049,0.0,0 STARLINK-3044,1 49438U 21104AG  23294.02574643  .00012049  00000-0  77231-3 0  9996,2 49438  53.2183 157.6144 0001454  69.7731 290.3418 15.08911741108549,6917.661,95.433,540.532,538.52,0.0
49438.0,STARLINK-3044,PAYLOAD,2023-10-21 08:34:02,15.08847843,0.0001659,53.2182,156.1294,92.1491,267.9691,-0.0001693,-2.982e-05,0.0,0 STARLINK-3044,1 49438U 21104AG  23294.35697664 -.00002982  00000-0 -16930-3 0  9997,2 49438  53.2182 156.1294 0001659  92.1491 267.9691 15.08847843108597,6917.856,95.437,540.869,538.574,0.0
49438.0,STARLINK-3044,PAYLOAD,2023-10-21 21:17:07,15.0884806,0.0001177,53.2167,153.7507,86.8124,273.3003,0.00010085,1.318e-05,0.0,0 STARLINK-3044,1 49438U 21104AG  23294.88689204  .00001318  00000-0  10085-3 0  9991,2 49438  53.2167 153.7507 0001177  86.8124 273.3003 15.08848060107609,6917.856,95.437,540.535,538.907,0.0
49438.0,STARLINK-3044,PAYLOAD,2023-10-22 21:07:55,15.08832006,0.0001186,53.2158,149.2916,88.3868,271.726,6.4722e-05,7.42e-06,0.0,0 STARLINK-3044,1 49438U 21104AG  23295.88050468  .00000742  00000-0  64722-4 0  9994,2 49438  53.2158 149.2916 0001186  88.3868 271.7260 15.08832006108820,6917.905,95.438,540.59,538.949,0.0
49438.0,STARLINK-3044,PAYLOAD,2023-10-23 20:58:42,15.08844158,0.0001162,53.2158,144.83,101.8808,258.2314,0.00011041,1.47e-05,0.0,0 STARLINK-3044,1 49438U 21104AG  23296.87409930  .00001470  00000-0  11041-3 0  9990,2 49438  53.2158 144.8300 0001162 101.8808 258.2314 15.08844158108974,6917.868,95.437,540.537,538.929,0.0
49438.0,STARLINK-3044,PAYLOAD,2023-10-24 14:27:57,15.08836357,0.0001288,53.2157,141.5589,103.0792,257.0344,0.00012601,1.718e-05,0.0,0 STARLINK-3044,1 49438U 21104AG  23297.60274373  .00001718  00000-0  12601-3 0  9991,2 49438  53.2157 141.5589 0001288 103.0792 257.0344 15.08836357108018,6917.892,95.438,540.648,538.865,0.0
49438.0,STARLINK-3044,PAYLOAD,2023-10-25 06:21:48,15.08837904,0.0001451,53.216,138.586,116.0921,244.022,0.00011812,1.592e-05,0.0,0 STARLINK-3044,1 49438U 21104AG  23298.26514271  .00001592  00000-0  11812-3 0  9991,2 49438  53.2160 138.5860 0001451 116.0921 244.0220 15.08837904109187,6917.887,95.438,540.756,538.748,0.0
49438.0,STARLINK-3044,PAYLOAD,2023-10-26 06:12:35,15.08844947,0.0001231,53.2162,134.1249,98.9393,261.1739,6.6813e-05,7.76e-06,0.0,0 STARLINK-3044,1 49438U 21104AG  23299.25874146  .00000776  00000-0  66813-4 0  9996,2 49438  53.2162 134.1249 0001231  98.9393 261.1739 15.08844947108267,6917.865,95.437,540.582,538.879,0.0
49438.0,STARLINK-3044,PAYLOAD,2023-10-26 20:31:03,15.0884744,0.0001334,53.2157,131.4481,96.8792,263.2352,0.0001586,2.238e-05,0.0,0 STARLINK-3044,1 49438U 21104AG  23299.85489718  .00002238  00000-0  15860-3 0  9999,2 49438  53.2157 131.4481 0001334  96.8792 263.2352 15.08847440108358,6917.858,95.437,540.645,538.8,0.0
49438.0,STARLINK-3044,PAYLOAD,2023-10-26 22:06:26,15.08848641,0.0001224,53.2151,131.1509,92.3012,267.812,0.00016106,2.277e-05,0.0,0 STARLINK-3044,1 49438U 21104AG  23299.92113622  .00002277  00000-0  16106-3 0  9992,2 49438  53.2151 131.1509 0001224  92.3012 267.8120 15.08848641109431,6917.854,95.437,540.566,538.872,0.0
49438.0,STARLINK-3044,PAYLOAD,2023-10-27 12:24:54,15.0884181,0.0001292,53.2154,128.4751,89.0283,271.0857,8.6177e-05,1.084e-05,0.0,0 STARLINK-3044,1 49438U 21104AG  23300.51729965  .00001084  00000-0  86177-4 0  9994,2 49438  53.2154 128.4751 0001292  89.0283 271.0857 15.08841810109525,6917.875,95.437,540.634,538.846,0.0
